XRISM                   
1 57800U 23137A   23348.50201923  .00003911  00000+0  30932-3 0  9991
2 57800  31.0029 112.3692 0009972 168.7010 191.3850 14.98889464 14789
